{"type": "FeatureCollection", "features": [ {"type": "Feature", "properties": {"norad_id": 41836, "name": "HIMAWARI-9", "group": "weather", "lat": 0.03855305102139857, "lon": 127.56966529744868, "alt_km": 35791.71563038155, "timestamp": "2025-12-23T16:57:11.988095+00:00", "meta": {"OBJECT_NAME": "HIMAWARI-9", "OBJECT_ID": "2016-064A", "EPOCH": "2025-12-22T18:58:13.571040", "MEAN_MOTION": 1.00272669, "ECCENTRICITY": 0.00014802, "INCLINATION": 0.0164, "RA_OF_ASC_NODE": 29.9097, "ARG_OF_PERICENTER": 299.5848, "MEAN_ANOMALY": 187.4267, "EPHEMERIS_TYPE": 0, "CLASSIFICATION_TYPE": "U", "NORAD_CAT_ID": 41836, "ELEMENT_SET_NO": 999, "REV_AT_EPOCH": 3344, "BSTAR": 0, "MEAN_MOTION_DOT": 0, "MEAN_MOTION_DDOT": 0}, "tle": {"line1": "1 41836U 16064A   25356.79043485  .00000000  00000+0  00000+0 0  9998", "line2": "2 41836   0.0164  29.9097 0001480 299.5848 187.4267  1.00272669 33441"}}, "geometry": {"type": "Point", "coordinates": [127.56966529744868, 0.03855305102139857]}}, {"type": "Feature", "properties": {"norad_id": 41866, "name": "GOES 16", "group": "weather", "lat": 0.027744381611518626, "lon": -117.89352199317585, "alt_km": 35774.157937511365, "timestamp": "2025-12-23T16:57:11.988107+00:00", "meta": {"OBJECT_NAME": "GOES 16", "OBJECT_ID": "2016-071A", "EPOCH": "2025-12-23T04:04:30.943776", "MEAN_MOTION": 1.00271912, "ECCENTRICITY": 0.0003084, "INCLINATION": 0.0731, "RA_OF_ASC_NODE": 102.7517, "ARG_OF_PERICENTER": 163.7646, "MEAN_ANOMALY": 141.9111, "EPHEMERIS_TYPE": 0, "CLASSIFICATION_TYPE": "U", "NORAD_CAT_ID": 41866, "ELEMENT_SET_NO": 999, "REV_AT_EPOCH": 3333, "BSTAR": 0, "MEAN_MOTION_DOT": -7e-07, "MEAN_MOTION_DDOT": 0}, "tle": {"line1": "1 41866U 16071A   25357.16980259 -.00000070  00000+0  00000+0 0  9998", "line2": "2 41866   0.0731 102.7517 0003084 163.7646 141.9111  1.00271912 33332"}}, "geometry": {"type": "Point", "coordinates": [-117.89352199317585, 0.027744381611518626]}}, {"type": "Feature", "properties": {"norad_id": 41882, "name": "FENGYUN 4A", "group": "weather", "lat": 0.9060894235648749, "lon": 110.37677635654447, "alt_km": 35796.474181140205, "timestamp": "2025-12-23T16:57:11.988119+00:00", "meta": {"OBJECT_NAME": "FENGYUN 4A", "OBJECT_ID": "2016-077A", "EPOCH": "2025-12-23T08:35:04.981056", "MEAN_MOTION": 1.00264066, "ECCENTRICITY": 0.0004569, "INCLINATION": 1.8742, "RA_OF_ASC_NODE": 82.3014, "ARG_OF_PERICENTER": 143.3346, "MEAN_ANOMALY": 118.943, "EPHEMERIS_TYPE": 0, "CLASSIFICATION_TYPE": "U", "NORAD_CAT_ID": 41882, "ELEMENT_SET_NO": 999, "REV_AT_EPOCH": 3316, "BSTAR": 0, "MEAN_MOTION_DOT": -3.37e-06, "MEAN_MOTION_DDOT": 0}, "tle": {"line1": "1 41882U 16077A   25357.35769654 -.00000337  00000+0  00000+0 0  9993", "line2": "2 41882   1.8742  82.3014 0004569 143.3346 118.9430  1.00264066 33167"}}, "geometry": {"type": "Point", "coordinates": [110.37677635654447, 0.9060894235648749]}}, {"type": "Feature", "properties": {"norad_id": 41884, "name": "CYGFM05", "group": "weather", "lat": 7.860951325401457, "lon": -13.128591393395393, "alt_km": 420.9383492109964, "timestamp": "2025-12-23T16:57:11.988130+00:00", "meta": {"OBJECT_NAME": "CYGFM05", "OBJECT_ID": "2016-078A", "EPOCH": "2025-12-23T04:30:42.842304", "MEAN_MOTION": 15.48011044, "ECCENTRICITY": 0.00107446, "INCLINATION": 34.9607, "RA_OF_ASC_NODE": 338.8623, "ARG_OF_PERICENTER": 273.8559, "MEAN_ANOMALY": 86.0935, "EPHEMERIS_TYPE": 0, "CLASSIFICATION_TYPE": "U", "NORAD_CAT_ID": 41884, "ELEMENT_SET_NO": 999, "REV_AT_EPOCH": 50138, "BSTAR": 0.00038374175, "MEAN_MOTION_DOT": 0.00020735, "MEAN_MOTION_DDOT": 0}, "tle": {"line1": "1 41884U 16078A   25357.18799586  .00020735  00000+0  38374-3 0  9996", "line2": "2 41884  34.9607 338.8623 0010744 273.8559  86.0935 15.48011044501380"}}, "geometry": {"type": "Point", "coordinates": [-13.128591393395393, 7.860951325401457]}}, {"type": "Feature", "properties": {"norad_id": 41885, "name": "CYGFM04", "group": "weather", "lat": 1.280413868065312, "lon": -48.23389223048446, "alt_km": 409.78921187309334, "timestamp": "2025-12-23T16:57:11.988141+00:00", "meta": {"OBJECT_NAME": "CYGFM04", "OBJECT_ID": "2016-078B", "EPOCH": "2025-12-23T06:07:44.144256", "MEAN_MOTION": 15.50793567, "ECCENTRICITY": 0.00094497, "INCLINATION": 34.9357, "RA_OF_ASC_NODE": 312.8922, "ARG_OF_PERICENTER": 298.7341, "MEAN_ANOMALY": 61.2431, "EPHEMERIS_TYPE": 0, "CLASSIFICATION_TYPE": "U", "NORAD_CAT_ID": 41885, "ELEMENT_SET_NO": 999, "REV_AT_EPOCH": 50157, "BSTAR": 0.00038886279, "MEAN_MOTION_DOT": 0.00023186, "MEAN_MOTION_DDOT": 0}, "tle": {"line1": "1 41885U 16078B   25357.25537204  .00023186  00000+0  38886-3 0  9993", "line2": "2 41885  34.9357 312.8922 0009449 298.7341  61.2431 15.50793567501579"}}, "geometry": {"type": "Point", "coordinates": [-48.23389223048446, 1.280413868065312]}}, {"type": "Feature", "properties": {"norad_id": 41886, "name": "CYGFM02", "group": "weather", "lat": 32.68906453056113, "lon": 14.897595422989804, "alt_km": 408.56305814245934, "timestamp": "2025-12-23T16:57:11.988153+00:00", "meta": {"OBJECT_NAME": "CYGFM02", "OBJECT_ID": "2016-078C", "EPOCH": "2025-12-23T04:18:07.828128", "MEAN_MOTION": 15.52200124, "ECCENTRICITY": 0.00110647, "INCLINATION": 34.9444, "RA_OF_ASC_NODE": 311.5816, "ARG_OF_PERICENTER": 299.4074, "MEAN_ANOMALY": 60.5544, "EPHEMERIS_TYPE": 0, "CLASSIFICATION_TYPE": "U", "NORAD_CAT_ID": 41886, "ELEMENT_SET_NO": 999, "REV_AT_EPOCH": 50169, "BSTAR": 0.00040176789, "MEAN_MOTION_DOT": 0.00025224, "MEAN_MOTION_DDOT": 0}, "tle": {"line1": "1 41886U 16078C   25357.17925727  .00025224  00000+0  40177-3 0  9997", "line2": "2 41886  34.9444 311.5816 0011064 299.4074  60.5544 15.52200124501696"}}, "geometry": {"type": "Point", "coordinates": [14.897595422989804, 32.68906453056113]}}, {"type": "Feature", "properties": {"norad_id": 41887, "name": "CYGFM01", "group": "weather", "lat": 34.45906151872258, "lon": 57.10114076269314, "alt_km": 421.3830660878748, "timestamp": "2025-12-23T16:57:11.988163+00:00", "meta": {"OBJECT_NAME": "CYGFM01", "OBJECT_ID": "2016-078D", "EPOCH": "2025-12-23T04:13:36.205536", "MEAN_MOTION": 15.48600258, "ECCENTRICITY": 0.00104718, "INCLINATION": 34.9437, "RA_OF_ASC_NODE": 341.2155, "ARG_OF_PERICENTER": 266.1968, "MEAN_ANOMALY": 93.7556, "EPHEMERIS_TYPE": 0, "CLASSIFICATION_TYPE": "U", "NORAD_CAT_ID": 41887, "ELEMENT_SET_NO": 999, "REV_AT_EPOCH": 50132, "BSTAR": 0.00038375397, "MEAN_MOTION_DOT": 0.00021169, "MEAN_MOTION_DDOT": 0}, "tle": {"line1": "1 41887U 16078D   25357.17611349  .00021169  00000+0  38375-3 0  9991", "line2": "2 41887  34.9437 341.2155 0010471 266.1968  93.7556 15.48600258501327"}}, "geometry": {"type": "Point", "coordinates": [57.10114076269314, 34.45906151872258]}}, {"type": "Feature", "properties": {"norad_id": 41888, "name": "CYGFM08", "group": "weather", "lat": 1.2000123066544308, "lon": 138.88934030569095, "alt_km": 419.4009386183043, "timestamp": "2025-12-23T16:57:11.988174+00:00", "meta": {"OBJECT_NAME": "CYGFM08", "OBJECT_ID": "2016-078E", "EPOCH": "2025-12-23T05:22:02.761248", "MEAN_MOTION": 15.49837046, "ECCENTRICITY": 0.00117882, "INCLINATION": 34.9468, "RA_OF_ASC_NODE": 323.7726, "ARG_OF_PERICENTER": 289.5227, "MEAN_ANOMALY": 70.4221, "EPHEMERIS_TYPE": 0, "CLASSIFICATION_TYPE": "U", "NORAD_CAT_ID": 41888, "ELEMENT_SET_NO": 999, "REV_AT_EPOCH": 50156, "BSTAR": 0.00038341627, "MEAN_MOTION_DOT": 0.00022113, "MEAN_MOTION_DDOT": 0}, "tle": {"line1": "1 41888U 16078E   25357.22364307  .00022113  00000+0  38342-3 0  9991", "line2": "2 41888  34.9468 323.7726 0011788 289.5227  70.4221 15.49837046501565"}}, "geometry": {"type": "Point", "coordinates": [138.88934030569095, 1.2000123066544308]}}, {"type": "Feature", "properties": {"norad_id": 41890, "name": "CYGFM07", "group": "weather", "lat": -5.0975460134632735, "lon": 136.8659366119586, "alt_km": 418.18492394249006, "timestamp": "2025-12-23T16:57:11.988186+00:00", "meta": {"OBJECT_NAME": "CYGFM07", "OBJECT_ID": "2016-078G", "EPOCH": "2025-12-23T06:52:12.582336", "MEAN_MOTION": 15.50433306, "ECCENTRICITY": 0.00096946, "INCLINATION": 34.9482, "RA_OF_ASC_NODE": 312.2836, "ARG_OF_PERICENTER": 304.5826, "MEAN_ANOMALY": 55.3981, "EPHEMERIS_TYPE": 0, "CLASSIFICATION_TYPE": "U", "NORAD_CAT_ID": 41890, "ELEMENT_SET_NO": 999, "REV_AT_EPOCH": 50159, "BSTAR": 0.00038423067, "MEAN_MOTION_DOT": 0.00022616, "MEAN_MOTION_DDOT": 0}, "tle": {"line1": "1 41890U 16078G   25357.28625674  .00022616  00000+0  38423-3 0  9995", "line2": "2 41890  34.9482 312.2836 0009694 304.5826  55.3981 15.50433306501596"}}, "geometry": {"type": "Point", "coordinates": [136.8659366119586, -5.0975460134632735]}}, {"type": "Feature", "properties": {"norad_id": 41891, "name": "CYGFM03", "group": "weather", "lat": 11.09783816489394, "lon": -32.2320121327662, "alt_km": 412.31103253727997, "timestamp": "2025-12-23T16:57:11.988197+00:00", "meta": {"OBJECT_NAME": "CYGFM03", "OBJECT_ID": "2016-078H", "EPOCH": "2025-12-23T04:30:19.896192", "MEAN_MOTION": 15.50323541, "ECCENTRICITY": 0.00094582, "INCLINATION": 34.9438, "RA_OF_ASC_NODE": 314.8551, "ARG_OF_PERICENTER": 291.3131, "MEAN_ANOMALY": 68.6581, "EPHEMERIS_TYPE": 0, "CLASSIFICATION_TYPE": "U", "NORAD_CAT_ID": 41891, "ELEMENT_SET_NO": 999, "REV_AT_EPOCH": 50155, "BSTAR": 0.00038012472, "MEAN_MOTION_DOT": 0.00022283, "MEAN_MOTION_DDOT": 0}, "tle": {"line1": "1 41891U 16078H   25357.18773028  .00022283  00000+0  38012-3 0  9996", "line2": "2 41891  34.9438 314.8551 0009458 291.3131  68.6581 15.50323541501558"}}, "geometry": {"type": "Point", "coordinates": [-32.2320121327662, 11.09783816489394]}}]}